#aV2022 10 24  0  0  0.00000000     288 DD+AD WGS84 FIT  NGA
## 2233  86400.00000000   300.00000000 59876 0.0000000000000
+   32     1  2  3  4  5  6  7  8  9 10 11 12 13 14 15 16 17
+         18 19 20 21 22 23 24 25 26 27 28 29 30 31 32  0  0
+          0  0  0  0  0  0  0  0  0  0  0  0  0  0  0  0  0
+          0  0  0  0  0  0  0  0  0  0  0  0  0  0  0  0  0
+          0  0  0  0  0  0  0  0  0  0  0  0  0  0  0  0  0
++         2  2  2  2  2  2  2  2  2  2  2  2  2  2  2  2  2
++         2  2  2  2  2  2  2  2  2  2  2  2  2  2  2  0  0
++         0  0  0  0  0  0  0  0  0  0  0  0  0  0  0  0  0
++         0  0  0  0  0  0  0  0  0  0  0  0  0  0  0  0  0
++         0  0  0  0  0  0  0  0  0  0  0  0  0  0  0  0  0
%c cc cc ccc ccc cccc cccc cccc cccc ccccc ccccc ccccc ccccc
%c cc cc ccc ccc cccc cccc cccc cccc ccccc ccccc ccccc ccccc
%f  0.0000000  0.000000000  0.00000000000  0.000000000000000
%f  0.0000000  0.000000000  0.00000000000  0.000000000000000
%i    0    0    0    0      0      0      0      0         0
%i    0    0    0    0      0      0      0      0         0
/*      NGA, ST. LOUIS,MO.                                  
/*   EPHEMERIS COMPUTED FROM 2 DAYS OF DATA                 
/*   EPOCHA v8 SMOOTHER                                     
/*   G2139 IERS2010 SATIGS SATAPC                           
*  2022 10 24 19 30  0.00000000
P  1 -18461.166021  -8564.112491  16941.811848    262.352712                    
V  1 -10642.947834 -19193.729160 -20592.968324     -0.059645                    
P  2  19426.289147   7579.015701 -15731.299252   -640.961364                    
V  2  11193.847865  18116.401339  21855.799309      0.016391                    
P  3 -16266.778454    792.611826  20835.750490   -367.679642                    
V  3  11506.435989 -24129.935242   9944.979980     -0.036315                    
P  4 -26508.876289  -1105.131620   2123.478788    -98.197617                    
V  4   2647.980233  -2735.147978  31554.500971      0.063131                    
P  5  10887.850765  11814.422327 -21303.579771   -101.648177                    
V  5 -11752.364878  23942.631663   7449.961489     -0.014676                    
P  6   3808.798169  22564.618832  13479.226104    500.348595                    
V  6 -10432.600980 -13503.934162  25747.099078      0.103707                    
P  7 -13269.777332   7504.198583 -21336.489498    295.317241                    
V  7 -15243.884996 -23634.487873    664.511856     -0.040572                    
P  8 -22896.934534  -6777.830555 -12046.434681    -90.440471                    
V  8  14912.676044  -3145.917765 -26305.773088     -0.018754                    
P  9 -23795.166865   7945.455393  -8871.312335   -278.640529                    
V  9 -11310.182384  -1923.506909  28831.549367      0.053376                    
P 10  11031.964021 -23930.109031   1558.218100     -8.913845                    
V 10   3146.930328   -422.827281 -32204.355390     -0.016544                    
P 11  11680.465637  23758.122972   2382.104105    -29.908716                    
V 11  -3805.044566  -1298.212826  31621.105599     -0.049127                    
P 12  16243.359566    738.384702  20713.858187   -296.108636                    
V 12 -13219.373151  23465.552031   9509.433731     -0.044757                    
P 13  16145.027048  13041.363006 -16853.500368    412.102697                    
V 13 -21027.616553   -357.854432 -20450.592148      0.069817                    
P 14 -13221.986994  22959.293070   -465.223774    -91.511986                    
V 14  -2526.872595  -2104.285111 -31600.172505      0.042680                    
P 15  23516.181515   4842.167496 -12108.988745    -18.175692                    
V 15 -13912.731063   5388.803305 -25528.990463      0.031547                    
P 16  -5265.223572 -17124.162975 -19732.286707   -526.583881                    
V 16  14256.712714 -20072.001106  14262.370905     -0.003620                    
P 17 -13334.529470  12947.934661  19440.520674    671.798043                    
V 17 -23669.040706  -1305.284456 -15660.099625      0.035065                    
P 18  11783.080070  -9305.648267 -21905.775680      3.039326                    
V 18  14782.069913  23517.797337  -2176.734719     -0.135831                    
P 19  -1391.584656  14718.060344  21827.393852    228.182371                    
V 19 -28183.995560  -1813.225181   -815.970491      0.050484                    
P 20   2924.673209  22769.030592 -13540.722133    475.714729                    
V 20  -7579.889134  15587.853154  24322.403371     -0.030873                    
P 21 -20397.645309 -14551.057567  10477.176953    157.431405                    
V 21  -6024.161473 -10719.287400 -27543.680486     -0.007169                    
P 22  -1919.125625 -15410.028277  21980.741599    351.744022                    
V 22  26884.879840    770.728774   2771.651083      0.070021                    
P 23  16016.802982 -19034.871590  -9118.864317     -1.120307                    
V 23  -2847.616340  11491.198417 -29145.977708     -0.000887                    
P 24  20473.573849  10936.836765  12950.856327     87.074887                    
V 24   8154.446796  15022.128120 -24523.345190     -0.149809                    
P 25  17949.691398 -11428.957677  15424.560715    385.731375                    
V 25  -6980.115572  19147.926553  22168.472893      0.038541                    
P 26   1040.929587 -23718.143774 -11654.443609    233.605552                    
V 26   8933.668373 -12282.356527  26321.100502      0.012814                    
P 27 -12952.300535 -12834.966330 -19667.667874    192.180214                    
V 27  24273.769648  -2117.432897 -14378.153862     -0.070774                    
P 28  -7709.292423  24001.330384   9255.958439    324.538261                    
V 28  -7655.433198   8126.445945 -28787.602494     -0.055519                    
P 29  25030.375422  -4567.957037  -7808.129800   -562.149719                    
V 29   9757.056228   2291.042654  30021.432704     -0.028665                    
P 30  -4628.204317  18288.566785 -18507.719777   -537.134689                    
V 30 -14303.382509 -19195.364314 -15568.758067      0.001216                    
P 31  -4178.104779 -23024.075528  11960.428733   -197.901294                    
V 31  10601.735901  11809.964271  26565.601918     -0.012800                    
P 32   9451.840624 -14683.916756  20104.799917   -273.796094                    
V 32  25292.220004   -250.791906 -12357.325739     -0.121435                    
EOF
